NORAD_CAT_ID,OBJECT_NAME,OBJECT_TYPE,EPOCH,MEAN_MOTION,ECCENTRICITY,INCLINATION,RA_OF_ASC_NODE,ARG_OF_PERICENTER,MEAN_ANOMALY,BSTAR,MEAN_MOTION_DOT,MEAN_MOTION_DDOT,TLE_LINE0,TLE_LINE1,TLE_LINE2,SEMIMAJOR_AXIS,PERIOD,APOGEE,PERIGEE,DECAYED
55392.0,STARLINK-5085,PAYLOAD,2024-01-13 14:39:06,14.98332796,0.0002509,69.999,226.3542,270.4175,89.6696,4.0102e-06,-4.5e-07,0.0,0 STARLINK-5085,1 55392U 23014B   24013.61048737 -.00000045  00000-0  40102-5 0  9992,2 55392  69.9990 226.3542 0002509 270.4175  89.6696 14.98332796 54807,6950.184,96.107,573.793,570.305,0.0
55392.0,STARLINK-5085,PAYLOAD,2024-01-13 19:27:30,14.98333577,0.0002505,69.9993,225.8486,270.2922,89.795,1.2526e-05,5.7e-07,0.0,0 STARLINK-5085,1 55392U 23014B   24013.81076619  .00000057  00000-0  12526-4 0  9994,2 55392  69.9993 225.8486 0002505 270.2922  89.7950 14.98333577 53895,6950.182,96.107,573.788,570.306,0.0
55392.0,STARLINK-5085,PAYLOAD,2024-01-14 14:41:06,14.98330289,0.0002535,69.9996,223.8301,267.7477,92.3391,4.8667e-05,4.88e-06,0.0,0 STARLINK-5085,1 55392U 23014B   24014.61188581  .00000488  00000-0  48667-4 0  9998,2 55392  69.9996 223.8301 0002535 267.7477  92.3391 14.98330289 54955,6950.192,96.107,573.819,570.295,0.0
55392.0,STARLINK-5085,PAYLOAD,2024-01-14 21:05:39,14.98332066,0.0002494,69.9997,223.1567,267.3545,92.7329,6.7621e-05,7.14e-06,0.0,0 STARLINK-5085,1 55392U 23014B   24014.87892389  .00000714  00000-0  67621-4 0  9997,2 55392  69.9997 223.1567 0002494 267.3545  92.7329 14.98332066 54993,6950.187,96.107,573.785,570.318,0.0
55392.0,STARLINK-5085,PAYLOAD,2024-01-15 00:17:55,14.98332072,0.0002506,69.9997,222.8201,267.827,92.2603,6.3678e-05,6.67e-06,0.0,0 STARLINK-5085,1 55392U 23014B   24015.01244383  .00000667  00000-0  63678-4 0  9994,2 55392  69.9997 222.8201 0002506 267.8270  92.2603 14.98332072 54074,6950.186,96.107,573.793,570.31,0.0
55392.0,STARLINK-5085,PAYLOAD,2024-01-15 14:43:07,14.98331184,0.0002397,70.0002,221.3056,266.7702,93.3182,-5.4183e-06,-1.58e-06,0.0,0 STARLINK-5085,1 55392U 23014B   24015.61328553 -.00000158  00000-0 -54183-5 0  9991,2 55392  70.0002 221.3056 0002397 266.7702  93.3182 14.98331184 55104,6950.189,96.107,573.72,570.388,0.0
55392.0,STARLINK-5085,PAYLOAD,2024-01-15 19:31:32,14.98330594,0.0002422,70.0002,220.8007,266.5228,93.5654,-1.3499e-05,-2.54e-06,0.0,0 STARLINK-5085,1 55392U 23014B   24015.81356583 -.00000254  00000-0 -13499-4 0  9998,2 55392  70.0002 220.8007 0002422 266.5228  93.5654 14.98330594 55137,6950.191,96.107,573.739,570.373,0.0
55392.0,STARLINK-5085,PAYLOAD,2024-01-16 00:19:56,14.98328807,0.0002463,70.0001,220.2958,268.2166,91.8711,-3.5148e-05,-5.12e-06,0.0,0 STARLINK-5085,1 55392U 23014B   24016.01384765 -.00000512  00000-0 -35148-4 0  9996,2 55392  70.0001 220.2958 0002463 268.2166  91.8711 14.98328807 54228,6950.197,96.107,573.773,570.35,0.0
55392.0,STARLINK-5085,PAYLOAD,2024-01-16 14:45:08,14.9833207,0.0002557,69.9998,218.7806,269.3258,90.7608,-2.1191e-05,-3.46e-06,0.0,0 STARLINK-5085,1 55392U 23014B   24016.61468474 -.00000346  00000-0 -21191-4 0  9990,2 55392  69.9998 218.7806 0002557 269.3258  90.7608 14.98332070 55256,6950.186,96.107,573.829,570.274,0.0
55392.0,STARLINK-5085,PAYLOAD,2024-01-16 21:09:40,14.98332049,0.0002559,69.9998,218.1073,268.5317,91.5548,-1.9326e-05,-3.24e-06,0.0,0 STARLINK-5085,1 55392U 23014B   24016.88172425 -.00000324  00000-0 -19326-4 0  9990,2 55392  69.9998 218.1073 0002559 268.5317  91.5548 14.98332049 55297,6950.187,96.107,573.83,570.273,0.0
55392.0,STARLINK-5085,PAYLOAD,2024-01-17 14:47:09,14.98327362,0.0002589,69.9998,216.2556,268.4428,91.6435,9.8282e-06,2.4e-07,0.0,0 STARLINK-5085,1 55392U 23014B   24017.61608622  .00000024  00000-0  98282-5 0  9999,2 55392  69.9998 216.2556 0002589 268.4428  91.6435 14.98327362 55408,6950.201,96.107,573.865,570.267,0.0
55392.0,STARLINK-5085,PAYLOAD,2024-01-17 19:35:34,14.98327588,0.000258,69.9999,215.7509,267.847,92.2393,1.238e-05,5.5e-07,0.0,0 STARLINK-5085,1 55392U 23014B   24017.81636627  .00000055  00000-0  12380-4 0  9995,2 55392  69.9999 215.7509 0002580 267.8470  92.2393 14.98327588 54490,6950.2,96.107,573.859,570.272,0.0
55392.0,STARLINK-5085,PAYLOAD,2024-01-17 21:11:42,14.98327828,0.0002574,69.9999,215.5826,267.7136,92.3728,1.4911e-05,8.5e-07,0.0,0 STARLINK-5085,1 55392U 23014B   24017.88312610  .00000085  00000-0  14911-4 0  9990,2 55392  69.9999 215.5826 0002574 267.7136  92.3728 14.98327828 55447,6950.2,96.107,573.854,570.276,0.0
55392.0,STARLINK-5085,PAYLOAD,2024-01-18 14:49:10,14.98331682,0.0002584,69.9999,213.7308,268.1943,91.892,2.2317e-05,1.73e-06,0.0,0 STARLINK-5085,1 55392U 23014B   24018.61748348  .00000173  00000-0  22317-4 0  9990,2 55392  69.9999 213.7308 0002584 268.1943  91.8920 14.98331682 55557,6950.188,96.107,573.849,570.257,0.0
55392.0,STARLINK-5085,PAYLOAD,2024-01-18 19:37:34,14.9833218,0.0002572,69.9999,213.2257,267.6638,92.4227,2.893e-05,2.52e-06,0.0,0 STARLINK-5085,1 55392U 23014B   24018.81776273  .00000252  00000-0  28930-4 0  9995,2 55392  69.9999 213.2257 0002572 267.6638  92.4227 14.98332180 54647,6950.186,96.107,573.839,570.264,0.0
55392.0,STARLINK-5085,PAYLOAD,2024-01-18 21:13:42,14.9833238,0.0002571,69.9999,213.0574,267.726,92.3605,3.0759e-05,2.74e-06,0.0,0 STARLINK-5085,1 55392U 23014B   24018.88452244  .00000274  00000-0  30759-4 0  9997,2 55392  69.9999 213.0574 0002571 267.7260  92.3605 14.98332380 55594,6950.186,96.107,573.837,570.264,0.0
55392.0,STARLINK-5085,PAYLOAD,2024-01-19 14:51:11,14.98330182,0.0002561,69.9999,211.2061,267.9735,92.1131,2.4701e-05,2.02e-06,0.0,0 STARLINK-5085,1 55392U 23014B   24019.61888336  .00000202  00000-0  24701-4 0  9995,2 55392  69.9999 211.2061 0002561 267.9735  92.1131 14.98330182 55706,6950.192,96.107,573.837,570.277,0.0
55392.0,STARLINK-5085,PAYLOAD,2024-01-19 19:39:35,14.9833036,0.000256,70.0,210.7012,268.196,91.8906,2.5591e-05,2.12e-06,0.0,0 STARLINK-5085,1 55392U 23014B   24019.81916315  .00000212  00000-0  25591-4 0  9995,2 55392  70.0000 210.7012 0002560 268.1960  91.8906 14.98330360 54796,6950.192,96.107,573.836,570.278,0.0
55392.0,STARLINK-5085,PAYLOAD,2024-01-19 22:51:51,14.98330227,0.0002565,69.9999,210.3644,268.7472,91.3393,2.2575e-05,1.76e-06,0.0,0 STARLINK-5085,1 55392U 23014B   24019.95268325  .00000176  00000-0  22575-4 0  9999,2 55392  69.9999 210.3644 0002565 268.7472  91.3393 14.98330227 55750,6950.192,96.107,573.84,570.274,0.0
55392.0,STARLINK-5085,PAYLOAD,2024-01-20 14:53:12,14.98330527,0.000252,70.0,208.6813,269.401,90.686,-1.2493e-05,-2.42e-06,0.0,0 STARLINK-5085,1 55392U 23014B   24020.62028375 -.00000242  00000-0 -12493-4 0  9998,2 55392  70.0000 208.6813 0002520 269.4010  90.6860 14.98330527 55856,6950.191,96.107,573.808,570.305,0.0
55392.0,STARLINK-5085,PAYLOAD,2024-01-20 19:41:36,14.98330573,0.0002513,70.0001,208.1764,269.6682,90.4189,-9.3069e-06,-2.04e-06,0.0,0 STARLINK-5085,1 55392U 23014B   24020.82056355 -.00000204  00000-0 -93069-5 0  9996,2 55392  70.0001 208.1764 0002513 269.6682  90.4189 14.98330573 54948,6950.191,96.107,573.803,570.31,0.0
55392.0,STARLINK-5085,PAYLOAD,2024-01-20 22:53:52,14.98330329,0.0002526,70.0,207.8395,270.381,89.706,-1.0983e-05,-2.24e-06,0.0,0 STARLINK-5085,1 55392U 23014B   24020.95408368 -.00000224  00000-0 -10983-4 0  9990,2 55392  70.0000 207.8395 0002526 270.3810  89.7060 14.98330329 55904,6950.192,96.107,573.812,570.301,0.0
55392.0,STARLINK-5085,PAYLOAD,2024-01-21 19:43:37,14.98328564,0.0002559,70.0001,205.6516,268.2412,91.8454,-1.2644e-05,-2.44e-06,0.0,0 STARLINK-5085,1 55392U 23014B   24021.82196457 -.00000244  00000-0 -12644-4 0  9998,2 55392  70.0001 205.6516 0002559 268.2412  91.8454 14.98328564 55095,6950.197,96.107,573.841,570.284,0.0
55392.0,STARLINK-5085,PAYLOAD,2024-01-21 21:19:45,14.98328429,0.0002557,70.0001,205.4833,268.2295,91.8571,-1.415e-05,-2.62e-06,0.0,0 STARLINK-5085,1 55392U 23014B   24021.88872467 -.00000262  00000-0 -14150-4 0  9990,2 55392  70.0001 205.4833 0002557 268.2295  91.8571 14.98328429 56048,6950.198,96.107,573.84,570.286,0.0
55392.0,STARLINK-5085,PAYLOAD,2024-01-21 22:55:53,14.98328628,0.0002555,70.0002,205.315,267.8996,92.187,-1.1422e-05,-2.29e-06,0.0,0 STARLINK-5085,1 55392U 23014B   24021.95548450 -.00000229  00000-0 -11422-4 0  9992,2 55392  70.0002 205.3150 0002555 267.8996  92.1870 14.98328628 56059,6950.197,96.107,573.838,570.286,0.0
55392.0,STARLINK-5085,PAYLOAD,2024-01-22 19:45:38,14.98332164,0.0002635,70.0001,203.127,268.0242,92.0616,3.2641e-05,2.97e-06,0.0,0 STARLINK-5085,1 55392U 23014B   24022.82336048  .00000297  00000-0  32641-4 0  9996,2 55392  70.0001 203.1270 0002635 268.0242  92.0616 14.98332164 55240,6950.186,96.107,573.883,570.22,0.0
55392.0,STARLINK-5085,PAYLOAD,2024-01-22 21:21:46,14.98332201,0.0002638,70.0001,202.9586,268.2892,91.7964,3.1682e-05,2.85e-06,0.0,0 STARLINK-5085,1 55392U 23014B   24022.89012030  .00000285  00000-0  31682-4 0  9996,2 55392  70.0001 202.9586 0002638 268.2892  91.7964 14.98332201 56192,6950.186,96.107,573.885,570.218,0.0
55392.0,STARLINK-5085,PAYLOAD,2024-01-23 21:23:47,14.98330454,0.0002609,70.0005,200.4346,267.8801,92.2059,3.185e-05,2.87e-06,0.0,0 STARLINK-5085,1 55392U 23014B   24023.89152059  .00000287  00000-0  31850-4 0  9992,2 55392  70.0005 200.4346 0002609 267.8801  92.2059 14.98330454 56342,6950.191,96.107,573.87,570.243,0.0
55392.0,STARLINK-5085,PAYLOAD,2024-01-24 11:49:00,14.98321806,0.0002379,70.0011,198.921,260.8042,99.2848,-8.8146e-05,-1.144e-05,0.0,0 STARLINK-5085,1 55392U 23014B   24024.49237079 -.00001144  00000-0 -88146-4 0  9990,2 55392  70.0011 198.9210 0002379 260.8042  99.2848 14.98321806 55493,6950.218,96.108,573.737,570.43,0.0
55392.0,STARLINK-5085,PAYLOAD,2024-01-24 15:01:17,14.98318461,0.0002451,70.0009,198.5851,263.4903,96.5977,-0.00012681,-1.605e-05,0.0,0 STARLINK-5085,1 55392U 23014B   24024.62589478 -.00001605  00000-0 -12681-3 0  9990,2 55392  70.0009 198.5851 0002451 263.4903  96.5977 14.98318461 56456,6950.229,96.108,573.797,570.39,0.0
